{"type": "FeatureCollection", "features": [ {"type": "Feature", "properties": {"norad_id": 66959, "name": "STARLINK-35887", "group": "last-30-days", "lat": 34.94976481551075, "lon": 149.29384218700682, "alt_km": 347.2544216998094, "timestamp": "2025-12-23T14:49:07.968158+00:00", "meta": {"OBJECT_NAME": "STARLINK-35887", "OBJECT_ID": "2025-288A", "EPOCH": "2025-12-23T06:00:00.999648", "MEAN_MOTION": 15.7401432, "ECCENTRICITY": 0.00012668, "INCLINATION": 43.0005, "RA_OF_ASC_NODE": 102.926, "ARG_OF_PERICENTER": 272.7917, "MEAN_ANOMALY": 220.8154, "EPHEMERIS_TYPE": 0, "CLASSIFICATION_TYPE": "U", "NORAD_CAT_ID": 66959, "ELEMENT_SET_NO": 999, "REV_AT_EPOCH": 352, "BSTAR": -0.014890093, "MEAN_MOTION_DOT": -0.01901079, "MEAN_MOTION_DDOT": 0}, "tle": {"line1": "1 66959U 25288A   25357.25001157 -.01901079  00000+0 -14890-1 0  9994", "line2": "2 66959  43.0005 102.9260 0001266 272.7917 220.8154 15.74014320  3528"}}, "geometry": {"type": "Point", "coordinates": [149.29384218700682, 34.94976481551075]}}, {"type": "Feature", "properties": {"norad_id": 66960, "name": "STARLINK-35879", "group": "last-30-days", "lat": 35.79577436852703, "lon": 151.39760270360102, "alt_km": 347.0243164258418, "timestamp": "2025-12-23T14:49:07.968175+00:00", "meta": {"OBJECT_NAME": "STARLINK-35879", "OBJECT_ID": "2025-288B", "EPOCH": "2025-12-23T06:00:00.999648", "MEAN_MOTION": 15.74030061, "ECCENTRICITY": 0.00010835, "INCLINATION": 43.0006, "RA_OF_ASC_NODE": 102.921, "ARG_OF_PERICENTER": 273.0925, "MEAN_ANOMALY": 222.4172, "EPHEMERIS_TYPE": 0, "CLASSIFICATION_TYPE": "U", "NORAD_CAT_ID": 66960, "ELEMENT_SET_NO": 999, "REV_AT_EPOCH": 352, "BSTAR": -0.014995582, "MEAN_MOTION_DOT": -0.01913685, "MEAN_MOTION_DDOT": 0}, "tle": {"line1": "1 66960U 25288B   25357.25001157 -.01913685  00000+0 -14996-1 0  9999", "line2": "2 66960  43.0006 102.9210 0001083 273.0925 222.4172 15.74030061  3524"}}, "geometry": {"type": "Point", "coordinates": [151.39760270360102, 35.79577436852703]}}, {"type": "Feature", "properties": {"norad_id": 66961, "name": "STARLINK-35761", "group": "last-30-days", "lat": 36.605231162580885, "lon": 153.5496479181062, "alt_km": 347.1541246642837, "timestamp": "2025-12-23T14:49:07.968192+00:00", "meta": {"OBJECT_NAME": "STARLINK-35761", "OBJECT_ID": "2025-288C", "EPOCH": "2025-12-23T06:00:00.999648", "MEAN_MOTION": 15.74016292, "ECCENTRICITY": 0.00013401, "INCLINATION": 43.0004, "RA_OF_ASC_NODE": 102.9162, "ARG_OF_PERICENTER": 265.78, "MEAN_ANOMALY": 231.659, "EPHEMERIS_TYPE": 0, "CLASSIFICATION_TYPE": "U", "NORAD_CAT_ID": 66961, "ELEMENT_SET_NO": 999, "REV_AT_EPOCH": 352, "BSTAR": -0.014900941, "MEAN_MOTION_DOT": -0.01902483, "MEAN_MOTION_DDOT": 0}, "tle": {"line1": "1 66961U 25288C   25357.25001157 -.01902483  00000+0 -14901-1 0  9990", "line2": "2 66961  43.0004 102.9162 0001340 265.7800 231.6590 15.74016292  3521"}}, "geometry": {"type": "Point", "coordinates": [153.5496479181062, 36.605231162580885]}}, {"type": "Feature", "properties": {"norad_id": 66962, "name": "STARLINK-35874", "group": "last-30-days", "lat": 37.375276020976386, "lon": 155.74600720444124, "alt_km": 346.7653271994159, "timestamp": "2025-12-23T14:49:07.968209+00:00", "meta": {"OBJECT_NAME": "STARLINK-35874", "OBJECT_ID": "2025-288D", "EPOCH": "2025-12-23T06:00:00.999648", "MEAN_MOTION": 15.74022082, "ECCENTRICITY": 0.00011005, "INCLINATION": 43.0005, "RA_OF_ASC_NODE": 102.9112, "ARG_OF_PERICENTER": 277.2829, "MEAN_ANOMALY": 222.0651, "EPHEMERIS_TYPE": 0, "CLASSIFICATION_TYPE": "U", "NORAD_CAT_ID": 66962, "ELEMENT_SET_NO": 999, "REV_AT_EPOCH": 352, "BSTAR": -0.014915434, "MEAN_MOTION_DOT": -0.01904288, "MEAN_MOTION_DDOT": 0}, "tle": {"line1": "1 66962U 25288D   25357.25001157 -.01904288  00000+0 -14915-1 0  9991", "line2": "2 66962  43.0005 102.9112 0001100 277.2829 222.0651 15.74022082  3527"}}, "geometry": {"type": "Point", "coordinates": [155.74600720444124, 37.375276020976386]}}, {"type": "Feature", "properties": {"norad_id": 66963, "name": "STARLINK-36133", "group": "last-30-days", "lat": 38.103188845185855, "lon": 157.98598887737626, "alt_km": 346.6612555620177, "timestamp": "2025-12-23T14:49:07.968229+00:00", "meta": {"OBJECT_NAME": "STARLINK-36133", "OBJECT_ID": "2025-288E", "EPOCH": "2025-12-23T06:00:00.999648", "MEAN_MOTION": 15.74019406, "ECCENTRICITY": 0.0001031, "INCLINATION": 43.0005, "RA_OF_ASC_NODE": 102.9067, "ARG_OF_PERICENTER": 274.5269, "MEAN_ANOMALY": 226.7408, "EPHEMERIS_TYPE": 0, "CLASSIFICATION_TYPE": "U", "NORAD_CAT_ID": 66963, "ELEMENT_SET_NO": 999, "REV_AT_EPOCH": 352, "BSTAR": -0.014898489, "MEAN_MOTION_DOT": -0.01902166, "MEAN_MOTION_DDOT": 0}, "tle": {"line1": "1 66963U 25288E   25357.25001157 -.01902166  00000+0 -14898-1 0  9995", "line2": "2 66963  43.0005 102.9067 0001031 274.5269 226.7408 15.74019406  3525"}}, "geometry": {"type": "Point", "coordinates": [157.98598887737626, 38.103188845185855]}}, {"type": "Feature", "properties": {"norad_id": 66964, "name": "STARLINK-36104", "group": "last-30-days", "lat": 38.78797203473581, "lon": 160.27046557798968, "alt_km": 346.5607778388985, "timestamp": "2025-12-23T14:49:07.968246+00:00", "meta": {"OBJECT_NAME": "STARLINK-36104", "OBJECT_ID": "2025-288F", "EPOCH": "2025-12-23T06:00:00.999648", "MEAN_MOTION": 15.7402622, "ECCENTRICITY": 0.00010689, "INCLINATION": 43.0005, "RA_OF_ASC_NODE": 102.9015, "ARG_OF_PERICENTER": 277.3146, "MEAN_ANOMALY": 225.8646, "EPHEMERIS_TYPE": 0, "CLASSIFICATION_TYPE": "U", "NORAD_CAT_ID": 66964, "ELEMENT_SET_NO": 999, "REV_AT_EPOCH": 352, "BSTAR": -0.014953793, "MEAN_MOTION_DOT": -0.01908789, "MEAN_MOTION_DDOT": 0}, "tle": {"line1": "1 66964U 25288F   25357.25001157 -.01908789  00000+0 -14954-1 0  9996", "line2": "2 66964  43.0005 102.9015 0001068 277.3146 225.8646 15.74026220  3520"}}, "geometry": {"type": "Point", "coordinates": [160.27046557798968, 38.78797203473581]}}, {"type": "Feature", "properties": {"norad_id": 66965, "name": "STARLINK-36067", "group": "last-30-days", "lat": 39.42566251083388, "lon": 162.59322557004134, "alt_km": 346.61735584157486, "timestamp": "2025-12-23T14:49:07.968267+00:00", "meta": {"OBJECT_NAME": "STARLINK-36067", "OBJECT_ID": "2025-288G", "EPOCH": "2025-12-23T06:00:00.999648", "MEAN_MOTION": 15.74040225, "ECCENTRICITY": 0.0001109, "INCLINATION": 43.0004, "RA_OF_ASC_NODE": 102.8973, "ARG_OF_PERICENTER": 263.6751, "MEAN_ANOMALY": 241.4107, "EPHEMERIS_TYPE": 0, "CLASSIFICATION_TYPE": "U", "NORAD_CAT_ID": 66965, "ELEMENT_SET_NO": 999, "REV_AT_EPOCH": 352, "BSTAR": -0.01506855, "MEAN_MOTION_DOT": -0.01922478, "MEAN_MOTION_DDOT": 0}, "tle": {"line1": "1 66965U 25288G   25357.25001157 -.01922478  00000+0 -15069-1 0  9996", "line2": "2 66965  43.0004 102.8973 0001109 263.6751 241.4107 15.74040225  3525"}}, "geometry": {"type": "Point", "coordinates": [162.59322557004134, 39.42566251083388]}}, {"type": "Feature", "properties": {"norad_id": 66966, "name": "STARLINK-36139", "group": "last-30-days", "lat": 40.01808955659887, "lon": 164.96472622119128, "alt_km": 346.80830009522197, "timestamp": "2025-12-23T14:49:07.968284+00:00", "meta": {"OBJECT_NAME": "STARLINK-36139", "OBJECT_ID": "2025-288H", "EPOCH": "2025-12-23T06:00:00.999648", "MEAN_MOTION": 15.74037119, "ECCENTRICITY": 0.00015871, "INCLINATION": 43.0004, "RA_OF_ASC_NODE": 102.8927, "ARG_OF_PERICENTER": 269.2774, "MEAN_ANOMALY": 237.7259, "EPHEMERIS_TYPE": 0, "CLASSIFICATION_TYPE": "U", "NORAD_CAT_ID": 66966, "ELEMENT_SET_NO": 999, "REV_AT_EPOCH": 352, "BSTAR": -0.015041904, "MEAN_MOTION_DOT": -0.01919755, "MEAN_MOTION_DDOT": 0}, "tle": {"line1": "1 66966U 25288H   25357.25001157 -.01919755  00000+0 -15042-1 0  9992", "line2": "2 66966  43.0004 102.8927 0001587 269.2774 237.7259 15.74037119  3526"}}, "geometry": {"type": "Point", "coordinates": [164.96472622119128, 40.01808955659887]}}, {"type": "Feature", "properties": {"norad_id": 66967, "name": "STARLINK-36136", "group": "last-30-days", "lat": 40.55945543701401, "lon": 167.3673162869961, "alt_km": 346.69977497052605, "timestamp": "2025-12-23T14:49:07.968301+00:00", "meta": {"OBJECT_NAME": "STARLINK-36136", "OBJECT_ID": "2025-288J", "EPOCH": "2025-12-23T06:00:00.999648", "MEAN_MOTION": 15.74010639, "ECCENTRICITY": 0.00014516, "INCLINATION": 43.0005, "RA_OF_ASC_NODE": 102.8878, "ARG_OF_PERICENTER": 259.2147, "MEAN_ANOMALY": 249.7222, "EPHEMERIS_TYPE": 0, "CLASSIFICATION_TYPE": "U", "NORAD_CAT_ID": 66967, "ELEMENT_SET_NO": 999, "REV_AT_EPOCH": 352, "BSTAR": -0.014786822, "MEAN_MOTION_DOT": -0.01889569, "MEAN_MOTION_DDOT": 0}, "tle": {"line1": "1 66967U 25288J   25357.25001157 -.01889569  00000+0 -14787-1 0  9997", "line2": "2 66967  43.0005 102.8878 0001451 259.2147 249.7222 15.74010639  3527"}}, "geometry": {"type": "Point", "coordinates": [167.3673162869961, 40.55945543701401]}}, {"type": "Feature", "properties": {"norad_id": 66968, "name": "STARLINK-36152", "group": "last-30-days", "lat": 41.052435939925104, "lon": 169.81994062249126, "alt_km": 346.30748733283235, "timestamp": "2025-12-23T14:49:07.968319+00:00", "meta": {"OBJECT_NAME": "STARLINK-36152", "OBJECT_ID": "2025-288K", "EPOCH": "2025-12-23T06:00:00.999648", "MEAN_MOTION": 15.74025002, "ECCENTRICITY": 0.00010052, "INCLINATION": 43.0005, "RA_OF_ASC_NODE": 102.8825, "ARG_OF_PERICENTER": 266.531, "MEAN_ANOMALY": 244.3194, "EPHEMERIS_TYPE": 0, "CLASSIFICATION_TYPE": "U", "NORAD_CAT_ID": 66968, "ELEMENT_SET_NO": 999, "REV_AT_EPOCH": 352, "BSTAR": -0.01494881, "MEAN_MOTION_DOT": -0.01908097, "MEAN_MOTION_DDOT": 0}, "tle": {"line1": "1 66968U 25288K   25357.25001157 -.01908097  00000+0 -14949-1 0  9996", "line2": "2 66968  43.0005 102.8825 0001005 266.5310 244.3194 15.74025002  3527"}}, "geometry": {"type": "Point", "coordinates": [169.81994062249126, 41.052435939925104]}}]}